{"type": "FeatureCollection", "features": [ {"type": "Feature", "properties": {"norad_id": 41836, "name": "HIMAWARI-9", "group": "weather", "lat": 0.009013224140734046, "lon": -178.58463415931226, "alt_km": 35785.324509512124, "timestamp": "2025-12-08T21:31:04.318289+00:00", "meta": {"OBJECT_NAME": "HIMAWARI-9", "OBJECT_ID": "2016-064A", "EPOCH": "2025-12-08T14:16:25.895424", "MEAN_MOTION": 1.00271357, "ECCENTRICITY": 0.00012693, "INCLINATION": 0.0197, "RA_OF_ASC_NODE": 65.4318, "ARG_OF_PERICENTER": 196.2475, "MEAN_ANOMALY": 170.7975, "EPHEMERIS_TYPE": 0, "CLASSIFICATION_TYPE": "U", "NORAD_CAT_ID": 41836, "ELEMENT_SET_NO": 999, "REV_AT_EPOCH": 3329, "BSTAR": 0, "MEAN_MOTION_DOT": -2.72e-06, "MEAN_MOTION_DDOT": 0}, "tle": {"line1": "1 41836U 16064A   25342.59474416 -.00000272  00000+0  00000+0 0  9995", "line2": "2 41836   0.0197  65.4318 0001269 196.2475 170.7975  1.00271357 33299"}}, "geometry": {"type": "Point", "coordinates": [-178.58463415931226, 0.009013224140734046]}}, {"type": "Feature", "properties": {"norad_id": 41866, "name": "GOES 16", "group": "weather", "lat": -0.033166693406810596, "lon": -63.98821095827637, "alt_km": 35774.47568955352, "timestamp": "2025-12-08T21:31:04.318302+00:00", "meta": {"OBJECT_NAME": "GOES 16", "OBJECT_ID": "2016-071A", "EPOCH": "2025-12-08T12:19:18.259392", "MEAN_MOTION": 1.00270836, "ECCENTRICITY": 0.0003435, "INCLINATION": 0.0679, "RA_OF_ASC_NODE": 102.9899, "ARG_OF_PERICENTER": 157.7577, "MEAN_ANOMALY": 256.9271, "EPHEMERIS_TYPE": 0, "CLASSIFICATION_TYPE": "U", "NORAD_CAT_ID": 41866, "ELEMENT_SET_NO": 999, "REV_AT_EPOCH": 3319, "BSTAR": 0, "MEAN_MOTION_DOT": -8.9e-07, "MEAN_MOTION_DDOT": 0}, "tle": {"line1": "1 41866U 16071A   25342.51340578 -.00000089  00000+0  00000+0 0  9995", "line2": "2 41866   0.0679 102.9899 0003435 157.7577 256.9271  1.00270836 33196"}}, "geometry": {"type": "Point", "coordinates": [-63.98821095827637, -0.033166693406810596]}}, {"type": "Feature", "properties": {"norad_id": 41882, "name": "FENGYUN 4A", "group": "weather", "lat": 1.822122133059925, "lon": 164.44549016569917, "alt_km": 35774.795568000765, "timestamp": "2025-12-08T21:31:04.318314+00:00", "meta": {"OBJECT_NAME": "FENGYUN 4A", "OBJECT_ID": "2016-077A", "EPOCH": "2025-12-08T14:29:38.895360", "MEAN_MOTION": 1.00275489, "ECCENTRICITY": 0.00049426, "INCLINATION": 1.8387, "RA_OF_ASC_NODE": 82.432, "ARG_OF_PERICENTER": 142.9861, "MEAN_ANOMALY": 193.4343, "EPHEMERIS_TYPE": 0, "CLASSIFICATION_TYPE": "U", "NORAD_CAT_ID": 41882, "ELEMENT_SET_NO": 999, "REV_AT_EPOCH": 3301, "BSTAR": 0, "MEAN_MOTION_DOT": -3.55e-06, "MEAN_MOTION_DDOT": 0}, "tle": {"line1": "1 41882U 16077A   25342.60392240 -.00000355  00000+0  00000+0 0  9998", "line2": "2 41882   1.8387  82.4320 0004942 142.9861 193.4343  1.00275489 33011"}}, "geometry": {"type": "Point", "coordinates": [164.44549016569917, 1.822122133059925]}}, {"type": "Feature", "properties": {"norad_id": 41884, "name": "CYGFM05", "group": "weather", "lat": 13.652074740011336, "lon": -128.1116205710533, "alt_km": 414.7383495799986, "timestamp": "2025-12-08T21:31:04.318335+00:00", "meta": {"OBJECT_NAME": "CYGFM05", "OBJECT_ID": "2016-078A", "EPOCH": "2025-12-08T14:39:21.010176", "MEAN_MOTION": 15.47407611, "ECCENTRICITY": 0.0009636, "INCLINATION": 34.9599, "RA_OF_ASC_NODE": 74.0987, "ARG_OF_PERICENTER": 144.4766, "MEAN_ANOMALY": 215.6599, "EPHEMERIS_TYPE": 0, "CLASSIFICATION_TYPE": "U", "NORAD_CAT_ID": 41884, "ELEMENT_SET_NO": 999, "REV_AT_EPOCH": 49912, "BSTAR": 0.00048584417, "MEAN_MOTION_DOT": 0.0002572, "MEAN_MOTION_DDOT": 0}, "tle": {"line1": "1 41884U 16078A   25342.61065984  .00025720  00000+0  48584-3 0  9999", "line2": "2 41884  34.9599  74.0987 0009636 144.4766 215.6599 15.47407611499125"}}, "geometry": {"type": "Point", "coordinates": [-128.1116205710533, 13.652074740011336]}}, {"type": "Feature", "properties": {"norad_id": 41885, "name": "CYGFM04", "group": "weather", "lat": -1.5843259245122967, "lon": 44.84748503419668, "alt_km": 421.59423599259026, "timestamp": "2025-12-08T21:31:04.318346+00:00", "meta": {"OBJECT_NAME": "CYGFM04", "OBJECT_ID": "2016-078B", "EPOCH": "2025-12-08T13:48:05.285088", "MEAN_MOTION": 15.50097993, "ECCENTRICITY": 0.00090153, "INCLINATION": 34.9353, "RA_OF_ASC_NODE": 49.227, "ARG_OF_PERICENTER": 173.4438, "MEAN_ANOMALY": 186.6404, "EPHEMERIS_TYPE": 0, "CLASSIFICATION_TYPE": "U", "NORAD_CAT_ID": 41885, "ELEMENT_SET_NO": 999, "REV_AT_EPOCH": 49929, "BSTAR": 0.00050241883, "MEAN_MOTION_DOT": 0.00029253, "MEAN_MOTION_DDOT": 0}, "tle": {"line1": "1 41885U 16078B   25342.57506117  .00029253  00000+0  50242-3 0  9992", "line2": "2 41885  34.9353  49.2270 0009015 173.4438 186.6404 15.50097993499294"}}, "geometry": {"type": "Point", "coordinates": [44.84748503419668, -1.5843259245122967]}}, {"type": "Feature", "properties": {"norad_id": 41886, "name": "CYGFM02", "group": "weather", "lat": -4.998062616485733, "lon": 38.29886211392141, "alt_km": 419.14559074537647, "timestamp": "2025-12-08T21:31:04.318357+00:00", "meta": {"OBJECT_NAME": "CYGFM02", "OBJECT_ID": "2016-078C", "EPOCH": "2025-12-08T13:50:02.361408", "MEAN_MOTION": 15.51459598, "ECCENTRICITY": 0.00106831, "INCLINATION": 34.9442, "RA_OF_ASC_NODE": 47.5977, "ARG_OF_PERICENTER": 172.6655, "MEAN_ANOMALY": 187.4225, "EPHEMERIS_TYPE": 0, "CLASSIFICATION_TYPE": "U", "NORAD_CAT_ID": 41886, "ELEMENT_SET_NO": 999, "REV_AT_EPOCH": 49942, "BSTAR": 0.00050541607, "MEAN_MOTION_DOT": 0.00030924, "MEAN_MOTION_DDOT": 0}, "tle": {"line1": "1 41886U 16078C   25342.57641622  .00030924  00000+0  50542-3 0  9994", "line2": "2 41886  34.9442  47.5977 0010683 172.6655 187.4225 15.51459598499423"}}, "geometry": {"type": "Point", "coordinates": [38.29886211392141, -4.998062616485733]}}, {"type": "Feature", "properties": {"norad_id": 41887, "name": "CYGFM01", "group": "weather", "lat": -6.798237741874733, "lon": -95.56076230799059, "alt_km": 418.5730351368593, "timestamp": "2025-12-08T21:31:04.318368+00:00", "meta": {"OBJECT_NAME": "CYGFM01", "OBJECT_ID": "2016-078D", "EPOCH": "2025-12-08T14:30:10.089216", "MEAN_MOTION": 15.47978786, "ECCENTRICITY": 0.00091886, "INCLINATION": 34.9428, "RA_OF_ASC_NODE": 76.5193, "ARG_OF_PERICENTER": 135.9839, "MEAN_ANOMALY": 224.1615, "EPHEMERIS_TYPE": 0, "CLASSIFICATION_TYPE": "U", "NORAD_CAT_ID": 41887, "ELEMENT_SET_NO": 999, "REV_AT_EPOCH": 49906, "BSTAR": 0.0004857316, "MEAN_MOTION_DOT": 0.00026231, "MEAN_MOTION_DDOT": 0}, "tle": {"line1": "1 41887U 16078D   25342.60428344  .00026231  00000+0  48573-3 0  9990", "line2": "2 41887  34.9428  76.5193 0009188 135.9839 224.1615 15.47978786499066"}}, "geometry": {"type": "Point", "coordinates": [-95.56076230799059, -6.798237741874733]}}, {"type": "Feature", "properties": {"norad_id": 41888, "name": "CYGFM08", "group": "weather", "lat": -23.294826952713247, "lon": -84.28916772537173, "alt_km": 416.6383986885894, "timestamp": "2025-12-08T21:31:04.318379+00:00", "meta": {"OBJECT_NAME": "CYGFM08", "OBJECT_ID": "2016-078E", "EPOCH": "2025-12-08T14:22:18.112800", "MEAN_MOTION": 15.49171763, "ECCENTRICITY": 0.00110721, "INCLINATION": 34.9463, "RA_OF_ASC_NODE": 59.5943, "ARG_OF_PERICENTER": 161.1133, "MEAN_ANOMALY": 199.0002, "EPHEMERIS_TYPE": 0, "CLASSIFICATION_TYPE": "U", "NORAD_CAT_ID": 41888, "ELEMENT_SET_NO": 999, "REV_AT_EPOCH": 49929, "BSTAR": 0.00050018778, "MEAN_MOTION_DOT": 0.00028201, "MEAN_MOTION_DDOT": 0}, "tle": {"line1": "1 41888U 16078E   25342.59882075  .00028201  00000+0  50019-3 0  9991", "line2": "2 41888  34.9463  59.5943 0011072 161.1133 199.0002 15.49171763499290"}}, "geometry": {"type": "Point", "coordinates": [-84.28916772537173, -23.294826952713247]}}, {"type": "Feature", "properties": {"norad_id": 41890, "name": "CYGFM07", "group": "weather", "lat": -13.096756753522463, "lon": -113.89352201103482, "alt_km": 411.86676918969624, "timestamp": "2025-12-08T21:31:04.318390+00:00", "meta": {"OBJECT_NAME": "CYGFM07", "OBJECT_ID": "2016-078G", "EPOCH": "2025-12-08T14:27:41.221152", "MEAN_MOTION": 15.49748278, "ECCENTRICITY": 0.00094512, "INCLINATION": 34.948, "RA_OF_ASC_NODE": 48.5742, "ARG_OF_PERICENTER": 178.7665, "MEAN_ANOMALY": 181.3082, "EPHEMERIS_TYPE": 0, "CLASSIFICATION_TYPE": "U", "NORAD_CAT_ID": 41890, "ELEMENT_SET_NO": 999, "REV_AT_EPOCH": 49931, "BSTAR": 0.00049170689, "MEAN_MOTION_DOT": 0.00028275, "MEAN_MOTION_DDOT": 0}, "tle": {"line1": "1 41890U 16078G   25342.60256043  .00028275  00000+0  49171-3 0  9994", "line2": "2 41890  34.9480  48.5742 0009451 178.7665 181.3082 15.49748278499315"}}, "geometry": {"type": "Point", "coordinates": [-113.89352201103482, -13.096756753522463]}}, {"type": "Feature", "properties": {"norad_id": 41891, "name": "CYGFM03", "group": "weather", "lat": 21.19913663304737, "lon": 82.30670913159575, "alt_km": 417.24109946767294, "timestamp": "2025-12-08T21:31:04.318401+00:00", "meta": {"OBJECT_NAME": "CYGFM03", "OBJECT_ID": "2016-078H", "EPOCH": "2025-12-08T13:37:08.069664", "MEAN_MOTION": 15.4964836, "ECCENTRICITY": 0.00087259, "INCLINATION": 34.9436, "RA_OF_ASC_NODE": 50.72, "ARG_OF_PERICENTER": 165.7953, "MEAN_ANOMALY": 194.3016, "EPHEMERIS_TYPE": 0, "CLASSIFICATION_TYPE": "U", "NORAD_CAT_ID": 41891, "ELEMENT_SET_NO": 999, "REV_AT_EPOCH": 49928, "BSTAR": 0.00049798144, "MEAN_MOTION_DOT": 0.00028529, "MEAN_MOTION_DDOT": 0}, "tle": {"line1": "1 41891U 16078H   25342.56745451  .00028529  00000+0  49798-3 0  9993", "line2": "2 41891  34.9436  50.7200 0008725 165.7953 194.3016 15.49648360499288"}}, "geometry": {"type": "Point", "coordinates": [82.30670913159575, 21.19913663304737]}}]}